NORAD_CAT_ID,OBJECT_NAME,OBJECT_TYPE,EPOCH,MEAN_MOTION,ECCENTRICITY,INCLINATION,RA_OF_ASC_NODE,ARG_OF_PERICENTER,MEAN_ANOMALY,BSTAR,MEAN_MOTION_DOT,MEAN_MOTION_DDOT,TLE_LINE0,TLE_LINE1,TLE_LINE2,SEMIMAJOR_AXIS,PERIOD,APOGEE,PERIGEE,DECAYED
52623.0,STARLINK-3986,PAYLOAD,2024-04-03 12:55:29,15.08844962,0.0001529,53.2152,194.6685,85.2438,274.8729,0.00075273,0.00011714,0.0,0 STARLINK-3986,1 52623U 22052AB  24094.53853188  .00011714  00000-0  75273-3 0  9990,2 52623  53.2152 194.6685 0001529  85.2438 274.8729 15.08844962104915,6917.865,95.437,540.788,538.672,0.0
52623.0,STARLINK-3986,PAYLOAD,2024-04-03 16:06:15,15.08850808,0.0001522,53.2154,194.0737,84.9549,275.1617,0.00085219,0.00013305,0.0,0 STARLINK-3986,1 52623U 22052AB  24094.67101081  .00013305  00000-0  85219-3 0  9992,2 52623  53.2154 194.0737 0001522  84.9549 275.1617 15.08850808104557,6917.847,95.437,540.765,538.659,0.0
52623.0,STARLINK-3986,PAYLOAD,2024-04-04 12:46:16,15.08843294,0.0001439,53.2158,190.2048,92.6875,267.4282,0.00021087,3.07e-05,0.0,0 STARLINK-3986,1 52623U 22052AB  24095.53213035  .00003070  00000-0  21087-3 0  9992,2 52623  53.2158 190.2048 0001439  92.6875 267.4282 15.08843294105069,6917.87,95.437,540.731,538.74,0.0
52623.0,STARLINK-3986,PAYLOAD,2024-04-05 12:37:02,15.08849951,0.0001565,53.2179,185.7468,94.2692,265.8479,0.00018093,2.593e-05,0.0,0 STARLINK-3986,1 52623U 22052AB  24096.52572580  .00002593  00000-0  18093-3 0  9997,2 52623  53.2179 185.7468 0001565  94.2692 265.8479 15.08849951104832,6917.85,95.437,540.798,538.632,0.0
52623.0,STARLINK-3986,PAYLOAD,2024-04-05 15:47:48,15.08851522,0.0001556,53.218,185.1521,94.2554,265.8616,0.00020862,3.035e-05,0.0,0 STARLINK-3986,1 52623U 22052AB  24096.65820454  .00003035  00000-0  20862-3 0  9996,2 52623  53.2180 185.1521 0001556  94.2554 265.8616 15.08851522105230,6917.845,95.437,540.787,538.634,0.0
52623.0,STARLINK-3986,PAYLOAD,2024-04-06 12:27:49,15.08839097,0.0001335,53.2181,181.2869,86.5608,273.5537,5.5447e-05,5.95e-06,0.0,0 STARLINK-3986,1 52623U 22052AB  24097.51932840  .00000595  00000-0  55447-4 0  9991,2 52623  53.2181 181.2869 0001335  86.5608 273.5537 15.08839097105367,6917.883,95.438,540.672,538.825,0.0
52623.0,STARLINK-3986,PAYLOAD,2024-04-06 22:00:08,15.08844597,0.0001486,53.2183,179.5028,87.6259,272.4904,7.3647e-05,8.84e-06,0.0,0 STARLINK-3986,1 52623U 22052AB  24097.91676488  .00000884  00000-0  73647-4 0  9991,2 52623  53.2183 179.5028 0001486  87.6259 272.4904 15.08844597105049,6917.866,95.437,540.759,538.703,0.0
52623.0,STARLINK-3986,PAYLOAD,2024-04-07 09:07:51,15.08829917,0.0001846,53.2186,177.4214,108.0161,252.1033,-0.00012241,-2.235e-05,0.0,0 STARLINK-3986,1 52623U 22052AB  24098.38045345 -.00002235  00000-0 -12241-3 0  9991,2 52623  53.2186 177.4214 0001846 108.0161 252.1033 15.08829917105492,6917.911,95.438,541.053,538.499,0.0
52623.0,STARLINK-3986,PAYLOAD,2024-04-07 12:18:37,15.08829301,0.0001483,53.2181,176.8271,93.0347,267.0815,-0.00010945,-2.029e-05,0.0,0 STARLINK-3986,1 52623U 22052AB  24098.51293468 -.00002029  00000-0 -10945-3 0  9997,2 52623  53.2181 176.8271 0001483  93.0347 267.0815 15.08829301105130,6917.913,95.438,540.804,538.752,0.0
52623.0,STARLINK-3986,PAYLOAD,2024-04-08 12:09:24,15.08841416,0.0001345,53.2181,172.3673,92.773,267.3416,0.00023317,3.425e-05,0.0,0 STARLINK-3986,1 52623U 22052AB  24099.50653457  .00003425  00000-0  23317-3 0  9991,2 52623  53.2181 172.3673 0001345  92.7730 267.3416 15.08841416105665,6917.876,95.437,540.672,538.811,0.0
52623.0,STARLINK-3986,PAYLOAD,2024-04-08 21:41:42,15.08854526,0.0001412,53.2182,170.5827,92.1484,267.967,0.00018928,2.727e-05,0.0,0 STARLINK-3986,1 52623U 22052AB  24099.90396857  .00002727  00000-0  18928-3 0  9999,2 52623  53.2182 170.5827 0001412  92.1484 267.9670 15.08854526105341,6917.836,95.437,540.678,538.724,0.0
52623.0,STARLINK-3986,PAYLOAD,2024-04-09 10:24:48,15.08837477,0.0001694,53.2178,168.2035,87.5207,272.5979,0.00012088,1.636e-05,0.0,0 STARLINK-3986,1 52623U 22052AB  24100.43389804  .00001636  00000-0  12088-3 0  9993,2 52623  53.2178 168.2035 0001694  87.5207 272.5979 15.08837477105805,6917.888,95.438,540.925,538.581,0.0
52623.0,STARLINK-3986,PAYLOAD,2024-04-10 10:15:35,15.0884918,0.0001212,53.2168,163.7421,84.8662,275.2469,0.00015995,2.259e-05,0.0,0 STARLINK-3986,1 52623U 22052AB  24101.42749148  .00002259  00000-0  15995-3 0  9996,2 52623  53.2168 163.7421 0001212  84.8662 275.2469 15.08849180105576,6917.852,95.437,540.556,538.879,0.0
52623.0,STARLINK-3986,PAYLOAD,2024-04-10 21:23:16,15.08856754,0.0001209,53.2149,161.6587,86.9343,273.1787,9.2229e-05,1.181e-05,0.0,0 STARLINK-3986,1 52623U 22052AB  24101.89116478  .00001181  00000-0  92229-4 0  9990,2 52623  53.2149 161.6587 0001209  86.9343 273.1787 15.08856754105643,6917.829,95.436,540.531,538.858,0.0
52623.0,STARLINK-3986,PAYLOAD,2024-04-11 10:06:22,15.08837294,0.0001239,53.2156,159.2812,83.7569,276.3564,1.8173e-05,1e-08,0.0,0 STARLINK-3986,1 52623U 22052AB  24102.42109401  .00000001  00000-0  18173-4 0  9994,2 52623  53.2156 159.2812 0001239  83.7569 276.3564 15.08837294106101,6917.889,95.438,540.611,538.897,0.0
52623.0,STARLINK-3986,PAYLOAD,2024-04-12 09:57:09,15.08838424,0.0001404,53.2149,154.8197,85.3347,274.7805,7.0505e-05,8.34e-06,0.0,0 STARLINK-3986,1 52623U 22052AB  24103.41469502  .00000834  00000-0  70505-4 0  9996,2 52623  53.2149 154.8197 0001404  85.3347 274.7805 15.08838424105875,6917.885,95.438,540.721,538.779,0.0
52623.0,STARLINK-3986,PAYLOAD,2024-04-13 09:47:57,15.08836086,0.0001397,53.2154,150.3594,82.5975,277.5176,8.3256e-05,1.037e-05,0.0,0 STARLINK-3986,1 52623U 22052AB  24104.40830000  .00001037  00000-0  83256-4 0  9994,2 52623  53.2154 150.3594 0001397  82.5975 277.5176 15.08836086106404,6917.892,95.438,540.724,538.791,0.0
52623.0,STARLINK-3986,PAYLOAD,2024-04-14 09:38:44,15.08841817,0.000149,53.2162,145.8993,100.2474,259.8686,0.00017306,2.467e-05,0.0,0 STARLINK-3986,1 52623U 22052AB  24105.40189855  .00002467  00000-0  17306-3 0  9990,2 52623  53.2162 145.8993 0001490 100.2474 259.8686 15.08841817106172,6917.875,95.437,540.771,538.709,0.0
52623.0,STARLINK-3986,PAYLOAD,2024-04-15 03:07:58,15.08841312,0.0001497,53.2163,142.6259,90.5998,269.5165,0.00016268,2.302e-05,0.0,0 STARLINK-3986,1 52623U 22052AB  24106.13053983  .00002302  00000-0  16268-3 0  9997,2 52623  53.2163 142.6259 0001497  90.5998 269.5165 15.08841312106666,6917.876,95.437,540.777,538.706,0.0
52623.0,STARLINK-3986,PAYLOAD,2024-04-15 07:54:08,15.08836885,0.0001541,53.2165,141.7355,108.7142,251.4017,7.5958e-05,9.21e-06,0.0,0 STARLINK-3986,1 52623U 22052AB  24106.32926128  .00000921  00000-0  75958-4 0  9995,2 52623  53.2165 141.7355 0001541 108.7142 251.4017 15.08836885106315,6917.89,95.438,540.821,538.689,0.0
52623.0,STARLINK-3986,PAYLOAD,2024-04-16 10:55:41,15.08846211,0.0001455,53.2167,136.6816,91.0586,269.0573,0.00014901,2.085e-05,0.0,0 STARLINK-3986,1 52623U 22052AB  24107.45533804  .00002085  00000-0  14901-3 0  9998,2 52623  53.2167 136.6816 0001455  91.0586 269.0573 15.08846211106868,6917.861,95.437,540.733,538.72,0.0
52623.0,STARLINK-3986,PAYLOAD,2024-04-17 01:14:07,15.08892976,0.0001294,53.217,134.0057,97.6962,262.4177,-0.00079696,-0.00012967,0.0,0 STARLINK-3986,1 52623U 22052AB  24108.05147293 -.00012967  00000-0 -79696-3 0  9992,2 52623  53.2170 134.0057 0001294  97.6962 262.4177 15.08892976106958,6917.718,95.434,540.479,538.688,0.0
52623.0,STARLINK-3986,PAYLOAD,2024-04-17 10:46:27,15.08862978,0.0001505,53.2165,132.2214,92.2499,267.8666,0.00043929,6.715e-05,0.0,0 STARLINK-3986,1 52623U 22052AB  24108.44892684  .00006715  00000-0  43929-3 0  9998,2 52623  53.2165 132.2214 0001505  92.2499 267.8666 15.08862978107017,6917.81,95.436,540.716,538.634,0.0
52623.0,STARLINK-3986,PAYLOAD,2024-04-18 10:37:15,15.08828195,0.0001308,53.216,127.7606,91.4118,268.7024,-0.00022046,-3.794e-05,0.0,0 STARLINK-3986,1 52623U 22052AB  24109.44254058 -.00003794  00000-0 -22046-3 0  9999,2 52623  53.2160 127.7606 0001308  91.4118 268.7024 15.08828195107163,6917.916,95.438,540.686,538.877,0.0
52623.0,STARLINK-3986,PAYLOAD,2024-04-19 10:28:02,15.08842591,0.000133,53.216,123.2996,90.6128,269.5017,0.00021989,3.214e-05,0.0,0 STARLINK-3986,1 52623U 22052AB  24110.43613695  .00003214  00000-0  21989-3 0  9996,2 52623  53.2160 123.2996 0001330  90.6128 269.5017 15.08842591107317,6917.872,95.437,540.658,538.817,0.0
52623.0,STARLINK-3986,PAYLOAD,2024-04-20 10:18:49,15.08855181,0.000146,53.2161,118.8387,90.3003,269.8157,0.00048945,7.513e-05,0.0,0 STARLINK-3986,1 52623U 22052AB  24111.42973460  .00007513  00000-0  48945-3 0  9992,2 52623  53.2161 118.8387 0001460  90.3003 269.8157 15.08855181107086,6917.834,95.437,540.709,538.689,0.0
52623.0,STARLINK-3986,PAYLOAD,2024-04-21 03:48:03,15.08840472,0.0001414,53.2169,115.5686,116.4757,243.638,3.9781e-05,3.45e-06,0.0,0 STARLINK-3986,1 52623U 22052AB  24112.15837854  .00000345  00000-0  39781-4 0  9994,2 52623  53.2169 115.5686 0001414 116.4757 243.6380 15.08840472107574,6917.879,95.438,540.722,538.766,0.0
52623.0,STARLINK-3986,PAYLOAD,2024-04-21 10:09:36,15.08828273,9.15e-05,53.2168,114.3836,72.8099,287.2993,-0.00015062,-2.683e-05,0.0,0 STARLINK-3986,1 52623U 22052AB  24112.42334478 -.00002683  00000-0 -15062-3 0  9992,2 52623  53.2168 114.3836 0000915  72.8099 287.2993 15.08828273107238,6917.916,95.438,540.414,539.148,0.0
52623.0,STARLINK-3986,PAYLOAD,2024-04-21 19:41:56,15.08822089,9.61e-05,53.2168,112.5985,84.316,275.7942,-0.00014039,-2.52e-05,0.0,0 STARLINK-3986,1 52623U 22052AB  24112.82079125 -.00002520  00000-0 -14039-3 0  9994,2 52623  53.2168 112.5985 0000961  84.3160 275.7942 15.08822089107292,6917.935,95.439,540.465,539.135,0.0
52623.0,STARLINK-3986,PAYLOAD,2024-04-22 05:14:14,15.08839174,0.000102,53.2161,110.8132,89.0705,271.0404,0.00019524,2.821e-05,0.0,0 STARLINK-3986,1 52623U 22052AB  24113.21822823  .00002821  00000-0  19524-3 0  9995,2 52623  53.2161 110.8132 0001020  89.0705 271.0404 15.08839174107738,6917.883,95.438,540.454,539.042,0.0
